OBJECT_NAME,OBJECT_ID,EPOCH,MEAN_MOTION,ECCENTRICITY,INCLINATION,RA_OF_ASC_NODE,ARG_OF_PERICENTER,MEAN_ANOMALY,EPHEMERIS_TYPE,CLASSIFICATION_TYPE,NORAD_CAT_ID,ELEMENT_SET_NO,REV_AT_EPOCH,BSTAR,MEAN_MOTION_DOT,MEAN_MOTION_DDOT
ORBCOMM FM06,1997-084G,2026-06-23T19:52:10.731072,14.47576116,.00004944,45.0147,20.7433,357.6527,17.4155,0,U,25118,999,49535,.27590084E-3,.88E-5,0
ORBCOMM FM04,1998-007C,2026-06-24T07:00:41.990688,14.35752481,.00415462,107.9627,184.0425,312.5677,47.1960,0,U,25159,999,47761,.27711157E-3,.677E-5,0
ORBCOMM FM19,1998-046C,2026-06-23T20:01:29.959392,14.39504255,.00044661,44.9920,211.9647,308.8882,220.7626,0,U,25415,999,45773,.19353144E-3,.466E-5,0
ORBCOMM FM20,1998-046D,2026-06-23T19:42:17.417088,14.38072666,.00024727,44.9922,220.0240,272.0892,87.9673,0,U,25416,999,45774,.15500359E-3,.332E-5,0
ORBCOMM FM27,1998-053G,2026-06-24T01:26:17.569248,14.39152544,.00016403,45.0061,302.7108,220.0549,140.0179,0,U,25481,999,45122,.2664014E-3,.69E-5,0
ORBCOMM FM32,1999-065C,2026-06-24T22:29:29.418720,14.37139190,.0004262,45.0137,136.5551,80.4655,279.6675,0,U,25982,999,38820,.23221E-3,.554E-5,0
ORBCOMM FM109,2014-040A,2026-06-23T22:43:44.684544,14.58851422,.00019733,47.0037,59.5265,264.2080,95.8581,0,U,40086,999,63533,.10537188E-3,.327E-5,0
ORBCOMM FM110,2015-081D,2026-06-23T03:08:09.123360,14.58887524,.0002507,47.0032,333.3406,111.9489,248.1664,0,U,41182,999,55849,.13288741E-3,.457E-5,0
ORBCOMM FM118,2015-081E,2026-06-24T02:58:10.114752,14.58883850,.00023415,47.0055,328.9775,67.4619,292.6514,0,U,41183,999,55874,.10051682E-3,.304E-5,0
ORBCOMM FM112,2015-081F,2026-06-24T21:09:20.005056,14.58912487,.0004058,46.9977,233.8630,248.5374,111.5080,0,U,41184,999,56007,.11272E-3,.362E-5,0
ORBCOMM FM113,2015-081G,2026-06-23T21:35:20.691456,14.58863520,.0002528,46.9997,238.8861,247.8941,112.1677,0,U,41185,999,55991,.76169893E-4,.189E-5,0
ORBCOMM FM108,2015-081J,2026-06-24T22:59:00.840768,14.58881881,.0003138,47.0038,145.4578,251.0039,109.0507,0,U,41187,999,56121,.12507E-3,.42E-5,0
ORBCOMM FM117,2015-081K,2026-06-25T04:43:54.332832,14.58870148,.000366,46.9999,142.9569,255.2052,104.8429,0,U,41188,999,56129,.92277E-4,.265E-5,0
ORBCOMM FM116,2015-081L,2026-06-23T21:01:50.007936,14.58890441,.00005773,47.0012,238.9940,136.5837,223.5095,0,U,41189,999,55991,.10574136E-3,.329E-5,0
