ORBCOMM FM06            
1 25118U 97084G   26174.82790198  .00000880  00000+0  27590-3 0  9990
2 25118  45.0147  20.7433 0000494 357.6527  17.4155 14.47576116495352
ORBCOMM FM04            
1 25159U 98007C   26175.29215267  .00000677  00000+0  27711-3 0  9991
2 25159 107.9627 184.0425 0041546 312.5677  47.1960 14.35752481477613
ORBCOMM FM19            
1 25415U 98046C   26174.83437453  .00000466  00000+0  19353-3 0  9990
2 25415  44.9920 211.9647 0004466 308.8882 220.7626 14.39504255457733
ORBCOMM FM20            
1 25416U 98046D   26174.82103492  .00000332  00000+0  15500-3 0  9995
2 25416  44.9922 220.0240 0002472 272.0892  87.9673 14.38072666457745
ORBCOMM FM27            
1 25481U 98053G   26175.05992557  .00000690  00000+0  26640-3 0  9993
2 25481  45.0061 302.7108 0001640 220.0549 140.0179 14.39152544451226
ORBCOMM FM32            
1 25982U 99065C   26175.93714605  .00000554  00000+0  23221-3 0  9997
2 25982  45.0137 136.5551 0004262  80.4655 279.6675 14.37139190388207
ORBCOMM FM109           
1 40086U 14040A   26174.94704496  .00000327  00000+0  10537-3 0  9990
2 40086  47.0037  59.5265 0001973 264.2080  95.8581 14.58851422635331
ORBCOMM FM110           
1 41182U 15081D   26174.13066115  .00000457  00000+0  13289-3 0  9995
2 41182  47.0032 333.3406 0002507 111.9489 248.1664 14.58887524558497
ORBCOMM FM118           
1 41183U 15081E   26175.12372818  .00000304  00000+0  10052-3 0  9992
2 41183  47.0055 328.9775 0002341  67.4619 292.6514 14.58883850558742
ORBCOMM FM112           
1 41184U 15081F   26175.88148154  .00000362  00000+0  11272-3 0  9999
2 41184  46.9977 233.8630 0004058 248.5374 111.5080 14.58912487560070
ORBCOMM FM113           
1 41185U 15081G   26174.89954504  .00000189  00000+0  76170-4 0  9990
2 41185  46.9997 238.8861 0002528 247.8941 112.1677 14.58863520559919
ORBCOMM FM108           
1 41187U 15081J   26175.95764862  .00000420  00000+0  12507-3 0  9997
2 41187  47.0038 145.4578 0003138 251.0039 109.0507 14.58881881561213
ORBCOMM FM117           
1 41188U 15081K   26176.19715663  .00000265  00000+0  92277-4 0  9990
2 41188  46.9999 142.9569 0003660 255.2052 104.8429 14.58870148561299
ORBCOMM FM116           
1 41189U 15081L   26174.87627324  .00000329  00000+0  10574-3 0  9990
2 41189  47.0012 238.9940 0000577 136.5837 223.5095 14.58890441559915
